ORBCOMM FM06            
1 25118U 97084G   26155.39055971  .00001656  00000+0  48509-3 0  9999
2 25118  45.0129 114.3138 0002127 292.1375 212.0306 14.47529998492537
ORBCOMM FM04            
1 25159U 98007C   26155.92274092  .00001122  00000+0  42973-3 0  9993
2 25159 107.9626 144.1779 0040937 345.9198  14.0799 14.35717941474838
ORBCOMM FM19            
1 25415U 98046C   26151.93014544  .00001262  00000+0  44674-3 0  9997
2 25415  44.9948 320.8349 0003786 215.6781 305.3151 14.39464938454439
ORBCOMM FM20            
1 25416U 98046D   26153.77143617  .00000876  00000+0  33330-3 0  9993
2 25416  44.9952 319.8469 0001188 200.4983 159.5818 14.38045009454719
ORBCOMM FM27            
1 25481U 98053G   26155.90036181  .00001131  00000+0  40778-3 0  9996
2 25481  45.0066  33.7101 0000390  16.6475 343.4387 14.39117758448463
ORBCOMM FM32            
1 25982U 99065C   26155.70800383  .00000722  00000+0  28816-3 0  9991
2 25982  45.0147 232.3088 0005333 333.3641  26.6933 14.37115357385295
ORBCOMM FM109           
1 40086U 14040A   26155.49653985  .00000548  00000+0  15212-3 0  9995
2 40086  47.0014 151.4867 0001463 208.2409 151.8398 14.58828986632495
ORBCOMM FM114           
1 41179U 15081A   26152.97982418  .00000602  00000+0  16356-3 0  9992
2 41179  47.0052  73.9009 0001546 135.7645 224.3365 14.58838571555535
ORBCOMM FM110           
1 41182U 15081D   26153.99571428  .00000757  00000+0  19640-3 0  9994
2 41182  47.0024  68.5419 0003230 358.8742   1.2136 14.58854978555550
ORBCOMM FM118           
1 41183U 15081E   26153.00264808  .00003490  00000+0  77410-3 0  9994
2 41183  47.0044  73.5648 0003601 319.9456  40.1164 14.58855670555514
ORBCOMM FM112           
1 41184U 15081F   26154.92509755  .00000774  00000+0  19993-3 0  9994
2 41184  47.0002 332.9588 0002853 156.2959 203.8059 14.58883627557013
ORBCOMM FM113           
1 41185U 15081G   26152.50425721  .00000623  00000+0  16801-3 0  9995
2 41185  47.0021 344.7743 0001308 154.2176 205.8776 14.58839578556644
ORBCOMM FM108           
1 41187U 15081J   26152.94619103  .00000948  00000+0  23678-3 0  9994
2 41187  47.0049 254.2558 0002129 152.3962 207.7037 14.58851287557855
ORBCOMM FM117           
1 41188U 15081K   26153.73351514  .00000838  00000+0  21351-3 0  9996
2 41188  47.0011 249.1714 0002701 159.5688 200.5306 14.58849437558015
ORBCOMM FM116           
1 41189U 15081L   26154.94685002  .00000802  00000+0  20578-3 0  9994
2 41189  47.0035 333.2243 0001432 348.9329  11.1525 14.58862060557004
